METEOSAT-11 (MSG-4)     
1 40732U 15034A   26095.22822667  .00000065  00000+0  00000+0 0  9995
2 40732   3.0186  71.4910 0001744 284.9949 288.5195  1.00276148  6484
ELEKTRO-L 2             
1 41105U 15074A   26095.24291654 -.00000114  00000+0  00000+0 0  9998
2 41105   6.5120  71.4090 0002580 258.9088 296.2004  1.00272399 37773
INSAT-3DR               
1 41752U 16054A   26095.11785901 -.00000076  00000+0  00000+0 0  9991
2 41752   0.1295  86.7921 0012086 196.6004  26.4708  1.00273784 35089
HIMAWARI-9              
1 41836U 16064A   26095.27368333 -.00000274  00000+0  00000+0 0  9998
2 41836   0.0486 108.0081 0001252 290.7832  34.0836  1.00271058 34477
GOES 16                 
1 41866U 16071A   26095.15738959 -.00000090  00000+0  00000+0 0  9997
2 41866   0.1747  85.2956 0001826 247.2132 172.9164  1.00272286 34374
FENGYUN 4A              
1 41882U 16077A   26095.27030332 -.00000355  00000+0  00000+0 0  9998
2 41882   2.1383  81.0216 0007888 139.2503 194.2574  1.00278500 34196
CYGFM05                 
1 41884U 16078A   26095.12330099  .00028781  00000+0  43634-3 0  9994
2 41884  34.9588  23.2481 0007071 195.7736 164.2768 15.53585748517375
CYGFM04                 
1 41885U 16078B   26095.10895189  .00036198  00000+0  47205-3 0  9998
2 41885  34.9342 354.3852 0007090 236.6933 123.3113 15.57615584517588
CYGFM02                 
1 41886U 16078C   26095.10011487  .00038823  00000+0  46507-3 0  9991
2 41886  34.9424 350.7721 0008014 235.5477 124.4491 15.59832671517731
CYGFM01                 
1 41887U 16078D   26095.14148998  .00030293  00000+0  44958-3 0  9995
2 41887  34.9419  24.7393 0006591 189.3704 170.6897 15.54164255517325
CYGFM08                 
1 41888U 16078E   26095.08684709  .00032582  00000+0  44499-3 0  9997
2 41888  34.9454   6.4262 0008682 215.9946 144.0194 15.56383482517562
CYGFM07                 
1 41890U 16078G   26095.11427976  .00034174  00000+0  46542-3 0  9995
2 41890  34.9466 354.6442 0007528 235.2612 124.7404 15.56463284517590
CYGFM03                 
1 41891U 16078H   26095.14945195  .00033528  00000+0  45673-3 0  9993
2 41891  34.9425 356.3756 0006489 225.3484 134.6711 15.56468649517574
FENGYUN 3D              
1 43010U 17072A   26095.27600690  .00000372  00000+0  19784-3 0  9990
2 43010  99.0075  68.4050 0000420 256.2612 103.8516 14.19723968434648
NOAA 20 (JPSS-1)        
1 43013U 17073A   26095.26027394  .00000111  00000+0  73659-4 0  9990
2 43013  98.7725  35.3884 0002044 101.7994 258.3412 14.19543353434120
GOES 17                 
1 43226U 18022A   26095.13378222 -.00000181  00000+0  00000+0 0  9999
2 43226   0.7501  86.7952 0001192 259.4298 165.8761  1.00271613 29692
FENGYUN 2H              
1 43491U 18050A   26095.11889902 -.00000124  00000+0  00000+0 0  9991
2 43491   2.8427  79.9459 0001160 170.5694  64.7485  1.00270591 28705
